NORAD_CAT_ID,OBJECT_NAME,OBJECT_TYPE,EPOCH,MEAN_MOTION,ECCENTRICITY,INCLINATION,RA_OF_ASC_NODE,ARG_OF_PERICENTER,MEAN_ANOMALY,BSTAR,MEAN_MOTION_DOT,MEAN_MOTION_DDOT,TLE_LINE0,TLE_LINE1,TLE_LINE2,SEMIMAJOR_AXIS,PERIOD,APOGEE,PERIGEE,DECAYED
50180.0,STARLINK-3265,PAYLOAD,2022-03-02 22:00:00,15.3954017,0.0001856,53.2177,0.4693,38.4281,118.6586,-0.01779,-0.00660309,0.0,0 STARLINK-3265,1 50180U 21125AA  22061.91667824 -.00660309  00000-0 -17790-1 0  9990,2 50180  53.2177   0.4693 0001856  38.4281 118.6586 15.39540170  3686,6825.605,93.534,448.737,446.203,0.0
50180.0,STARLINK-3265,PAYLOAD,2022-03-03 06:00:00,15.39070306,0.0001672,53.2176,358.9045,46.893,158.3928,-0.017902,-0.00654628,0.0,0 STARLINK-3265,1 50180U 21125AA  22062.25001157 -.00654628  00000-0 -17902-1 0  9991,2 50180  53.2176 358.9045 0001672  46.8930 158.3928 15.39070306 11945,6826.994000000002,93.563,450.001,447.718,0.0
50180.0,STARLINK-3265,PAYLOAD,2022-03-03 14:00:01,15.38607809,0.0001676999999999,53.2176,357.3373,42.0342,210.8895,-0.018378,-0.00661384,0.0,0 STARLINK-3265,1 50180U 21125AA  22062.58334491 -.00661384  00000-0 -18378-1 0  9992,2 50180  53.2176 357.3373 0001677  42.0342 210.8895 15.38607809  3673,6828.361999999999,93.591,451.372,449.082,0.0
50180.0,STARLINK-3265,PAYLOAD,2022-03-03 22:00:00,15.38141522,0.0001705,53.2178,355.7734,40.15,259.8509,-0.018673,-0.00661773,0.0,0 STARLINK-3265,1 50180U 21125AA  22062.91667824 -.00661773  00000-0 -18673-1 0  9998,2 50180  53.2178 355.7734 0001705  40.1500 259.8509 15.38141522  3675,6829.7419999999975,93.619,452.772,450.443,0.0
50180.0,STARLINK-3265,PAYLOAD,2022-03-04 06:00:02,15.37672791,0.0001523,53.2176,354.2118,43.7168,302.8651,-0.018852,-0.00658192,0.0,0 STARLINK-3265,1 50180U 21125AA  22063.25002315 -.00658192  00000-0 -18852-1 0  9994,2 50180  53.2176 354.2118 0001523  43.7168 302.8651 15.37672791 12099,6831.13,93.648,454.035,451.955,0.0
50180.0,STARLINK-3265,PAYLOAD,2022-03-04 14:00:01,15.37207136,0.0001589,53.2176,352.648,37.3702,355.1689,-0.019203,-0.00660203,0.0,0 STARLINK-3265,1 50180U 21125AA  22063.58335648 -.00660203  00000-0 -19203-1 0  9995,2 50180  53.2176 352.6480 0001589  37.3702 355.1689 15.37207136  3671,6832.51,93.676,455.46,453.289,0.0
50180.0,STARLINK-3265,PAYLOAD,2022-03-04 22:00:00,15.36742368,0.0001792,53.2177,351.0878,33.6069,44.2627,-0.019588,-0.0066314999999999,0.0,0 STARLINK-3265,1 50180U 21125AA  22063.91667824 -.00663150  00000-0 -19588-1 0  9996,2 50180  53.2177 351.0878 0001792  33.6069  44.2627 15.36742368  3664,6833.887,93.705,456.977,454.527,0.0
50180.0,STARLINK-3265,PAYLOAD,2022-03-05 06:00:00,15.36270607,0.0001955,53.2174,349.5292,32.4757,90.2301,-0.019597,-0.00654078,0.0,0 STARLINK-3265,1 50180U 21125AA  22064.25001157 -.00654078  00000-0 -19597-1 0  9994,2 50180  53.2174 349.5292 0001955  32.4757  90.2301 15.36270607 12252,6835.286,93.733,458.487,455.815,0.0
50180.0,STARLINK-3265,PAYLOAD,2022-03-05 14:00:01,15.35806264,0.0001679,53.2174,347.9687,43.8845,123.0959,-0.020005,-0.00657465,0.0,0 STARLINK-3265,1 50180U 21125AA  22064.58334491 -.00657465  00000-0 -20005-1 0  9999,2 50180  53.2174 347.9687 0001679  43.8845 123.0959 15.35806264  3650,6836.6640000000025,93.762,459.677,457.381,0.0
50180.0,STARLINK-3265,PAYLOAD,2022-03-05 22:00:01,15.35340771,0.0001898,53.2177,346.4118,38.1686,172.5889,-0.020378,-0.00659626,0.0,0 STARLINK-3265,1 50180U 21125AA  22064.91668981 -.00659626  00000-0 -20378-1 0  9994,2 50180  53.2177 346.4118 0001898  38.1686 172.5889 15.35340771  3689,6838.045,93.79,461.208,458.61300000000006,0.0
50180.0,STARLINK-3265,PAYLOAD,2022-03-06 06:00:00,15.34871903,0.0001575999999999,53.2173,344.8564,50.3494,203.4972,-0.020536,-0.00655099,0.0,0 STARLINK-3265,1 50180U 21125AA  22065.25001157 -.00655099  00000-0 -20536-1 0  9994,2 50180  53.2173 344.8564 0001576  50.3494 203.4972 15.34871903 12400,6839.438,93.819,462.381,460.225,0.0
50180.0,STARLINK-3265,PAYLOAD,2022-03-06 14:00:01,15.34406533,0.0001458,53.2175,343.2992,51.0012,245.4388,-0.020926,-0.00657476,0.0,0 STARLINK-3265,1 50180U 21125AA  22065.58334491 -.00657476  00000-0 -20926-1 0  9994,2 50180  53.2175 343.2992 0001458  51.0012 245.4388 15.34406533  3661,6840.821,93.847,463.6830000000001,461.68800000000016,0.0
50180.0,STARLINK-3265,PAYLOAD,2022-03-06 22:00:00,15.33942239,0.0001647,53.2177,341.7457,40.6871,297.7834,-0.021371,-0.00661317,0.0,0 STARLINK-3265,1 50180U 21125AA  22065.91667824 -.00661317  00000-0 -21371-1 0  9994,2 50180  53.2177 341.7457 0001647  40.6871 297.7834 15.33942239  3662,6842.201,93.876,465.193,462.939,0.0
50180.0,STARLINK-3265,PAYLOAD,2022-03-07 06:00:00,15.33474134,0.0001444,53.2173,340.1937,46.0764,333.8649,-0.021578,-0.00658065,0.0,0 STARLINK-3265,1 50180U 21125AA  22066.25001157 -.00658065  00000-0 -21578-1 0  9998,2 50180  53.2173 340.1937 0001444  46.0764 333.8649 15.33474134 12558,6843.593000000003,93.904,466.447,464.47,0.0
50180.0,STARLINK-3265,PAYLOAD,2022-03-07 12:00:00,15.33126368,0.0001395,53.2175,339.028,53.8073,266.8701,-0.021982,-0.00662674,0.0,0 STARLINK-3265,1 50180U 21125AA  22066.50001157 -.00662674  00000-0 -21982-1 0  9996,2 50180  53.2175 339.0280 0001395  53.8073 266.8701 15.33126368  3706,6844.628000000002,93.926,467.448,465.539,0.0
50180.0,STARLINK-3265,PAYLOAD,2022-03-07 22:00:00,15.32541961,0.000173,53.2174,337.0899,38.9373,62.2652,-0.022321,-0.00660749,0.0,0 STARLINK-3265,1 50180U 21125AA  22066.91667824 -.00660749  00000-0 -22321-1 0  9999,2 50180  53.2174 337.0899 0001730  38.9373  62.2652 15.32541961  3644,6846.368,93.962,469.418,467.049,0.0
50180.0,STARLINK-3265,PAYLOAD,2022-03-08 06:00:02,15.32073983,0.0001804,53.2172,335.5407,38.0096,103.0459,-0.022539,-0.00657666,0.0,0 STARLINK-3265,1 50180U 21125AA  22067.25002315 -.00657666  00000-0 -22539-1 0  9990,2 50180  53.2172 335.5407 0001804  38.0096 103.0459 15.32073983 12716,6847.762,93.99,470.86300000000006,468.392,0.0
50180.0,STARLINK-3265,PAYLOAD,2022-03-08 14:00:01,15.31607509,0.0001616,53.2172,333.9902,47.9611,132.2604,-0.022887,-0.00658042,0.0,0 STARLINK-3265,1 50180U 21125AA  22067.58334491 -.00658042  00000-0 -22887-1 0  9994,2 50180  53.2172 333.9902 0001616  47.9611 132.2604 15.31607509  3678,6849.153,94.019,472.125,469.911,0.0
50180.0,STARLINK-3265,PAYLOAD,2022-03-08 22:00:00,15.311403699999998,0.0001761,53.2174,332.4437,45.0355,173.8537,-0.023192,-0.00657196,0.0,0 STARLINK-3265,1 50180U 21125AA  22067.91667824 -.00657196  00000-0 -23192-1 0  9999,2 50180  53.2174 332.4437 0001761  45.0355 173.8537 15.31140370  3665,6850.545999999999,94.048,473.617,471.204,0.0
50180.0,STARLINK-3265,PAYLOAD,2022-03-09 06:00:00,15.30675924,0.0001701,53.2171,330.8977,44.1368,212.8584,-0.023651,-0.006603,0.0,0 STARLINK-3265,1 50180U 21125AA  22068.25001157 -.00660300  00000-0 -23651-1 0  9999,2 50180  53.2171 330.8977 0001701  44.1368 212.8584 15.30675924 12866,6851.931,94.076,474.962,472.631,0.0
50180.0,STARLINK-3265,PAYLOAD,2022-03-09 14:00:01,15.30206792,0.0001555,53.2173,329.3504,46.9888,247.5553,-0.023843,-0.00656278,0.0,0 STARLINK-3265,1 50180U 21125AA  22068.58334491 -.00656278  00000-0 -23843-1 0  9997,2 50180  53.2173 329.3504 0001555  46.9888 247.5553 15.30206792  3674,6853.331999999999,94.105,476.262,474.131,0.0
50180.0,STARLINK-3265,PAYLOAD,2022-03-09 22:00:01,15.29742058,0.0001761,53.2174,327.8073,38.0255,293.5671,-0.024308,-0.00659281,0.0,0 STARLINK-3265,1 50180U 21125AA  22068.91668981 -.00659281  00000-0 -24308-1 0  9992,2 50180  53.2174 327.8073 0001761  38.0255 293.5671 15.29742058  3656,6854.72,94.134,477.792,475.378,0.0
50180.0,STARLINK-3265,PAYLOAD,2022-03-10 14:00:01,15.28702992,0.0001767,53.2173,324.7191,30.0462,13.8313,-0.019355,-0.00511683,0.0,0 STARLINK-3265,1 50180U 21125AA  22069.58334491 -.00511683  00000-0 -19355-1 0  9991,2 50180  53.2173 324.7191 0001767  30.0462  13.8313 15.28702992  3625,6857.826,94.197,480.902,478.479,0.0
50180.0,STARLINK-3265,PAYLOAD,2022-03-10 20:00:01,15.28459867,0.0001764999999999,53.2176,323.5656,37.3006,303.0494,-0.025351,-0.00660736,0.0,0 STARLINK-3265,1 50180U 21125AA  22069.83334491 -.00660736  00000-0 -25351-1 0  9996,2 50180  53.2176 323.5656 0001765  37.3006 303.0494 15.28459867 13101,6858.553000000001,94.212,481.628,479.207,0.0
50180.0,STARLINK-3265,PAYLOAD,2022-03-10 22:00:01,15.2834275,0.0001902,53.2174,323.1812,33.1741,46.0129,-0.025427,-0.00660376,0.0,0 STARLINK-3265,1 50180U 21125AA  22069.91668981 -.00660376  00000-0 -25427-1 0  9993,2 50180  53.2174 323.1812 0001902  33.1741  46.0129 15.28342750  3652,6858.903,94.22,482.073,479.464,0.0
50180.0,STARLINK-3265,PAYLOAD,2022-03-11 14:00:01,15.27409715,0.0001818,53.2172,320.1009,39.2337,108.8171,-0.026183,-0.00660776,0.0,0 STARLINK-3265,1 50180U 21125AA  22070.58334491 -.00660776  00000-0 -26183-1 0  9998,2 50180  53.2172 320.1009 0001818  39.2337 108.8171 15.27409715  3646,6861.696,94.277,484.8080000000001,482.314,0.0
50180.0,STARLINK-3265,PAYLOAD,2022-03-11 22:00:00,15.26941023,0.000198,53.2173,318.5646,37.363,144.31,-0.026403,-0.00657148,0.0,0 STARLINK-3265,1 50180U 21125AA  22070.91667824 -.00657148  00000-0 -26403-1 0  9998,2 50180  53.2173 318.5646 0001980  37.3630 144.3100 15.26941023 13279,6863.1,94.306,486.324,483.606,0.0
50180.0,STARLINK-3265,PAYLOAD,2022-03-12 14:00:01,15.26009157,0.0001769,53.2173,315.4907,42.5685,204.6677,-0.027256,-0.0065923,0.0,0 STARLINK-3265,1 50180U 21125AA  22071.58334491 -.00659230  00000-0 -27256-1 0  9994,2 50180  53.2173 315.4907 0001769  42.5685 204.6677 15.26009157  3662,6865.894,94.364,488.973,486.544,0.0
50180.0,STARLINK-3265,PAYLOAD,2022-03-12 22:00:00,15.25541472,0.0001954,53.2174,313.9581,36.8977,242.2783,-0.027548,-0.00657102,0.0,0 STARLINK-3265,1 50180U 21125AA  22071.91667824 -.00657102  00000-0 -27548-1 0  9990,2 50180  53.2174 313.9581 0001954  36.8977 242.2783 15.25541472  3655,6867.297,94.393,490.504,487.82,0.0
